{"type": "FeatureCollection", "features": [ {"type": "Feature", "properties": {"norad_id": 42969, "name": "SENTINEL-5P", "group": "resource", "lat": 41.280160871460524, "lon": -89.00339742821153, "alt_km": 823.1419942298335, "timestamp": "2025-12-06T03:35:01.454941+00:00", "meta": {"OBJECT_NAME": "SENTINEL-5P", "OBJECT_ID": "2017-064A", "EPOCH": "2025-12-05T07:05:13.536384", "MEAN_MOTION": 14.19514571, "ECCENTRICITY": 9.347e-05, "INCLINATION": 98.7773, "RA_OF_ASC_NODE": 277.9459, "ARG_OF_PERICENTER": 86.4768, "MEAN_ANOMALY": 273.6515, "EPHEMERIS_TYPE": 0, "CLASSIFICATION_TYPE": "U", "NORAD_CAT_ID": 42969, "ELEMENT_SET_NO": 999, "REV_AT_EPOCH": 42205, "BSTAR": 0.00010816561, "MEAN_MOTION_DOT": 1.84e-06, "MEAN_MOTION_DDOT": 0}, "tle": {"line1": "1 42969U 17064A   25339.29529556  .00000184  00000+0  10817-3 0  9995", "line2": "2 42969  98.7773 277.9459 0000934  86.4768 273.6515 14.19514571422051"}}, "geometry": {"type": "Point", "coordinates": [-89.00339742821153, 41.280160871460524]}}, {"type": "Feature", "properties": {"norad_id": 42987, "name": "SKYSAT-C11", "group": "resource", "lat": 10.167356887493836, "lon": 116.14206464115944, "alt_km": 427.16471864001414, "timestamp": "2025-12-06T03:35:01.454952+00:00", "meta": {"OBJECT_NAME": "SKYSAT-C11", "OBJECT_ID": "2017-068A", "EPOCH": "2025-12-05T07:21:30.570912", "MEAN_MOTION": 15.4698732, "ECCENTRICITY": 9.601e-05, "INCLINATION": 97.4138, "RA_OF_ASC_NODE": 116.6174, "ARG_OF_PERICENTER": 111.065, "MEAN_ANOMALY": 249.0703, "EPHEMERIS_TYPE": 0, "CLASSIFICATION_TYPE": "U", "NORAD_CAT_ID": 42987, "ELEMENT_SET_NO": 999, "REV_AT_EPOCH": 45316, "BSTAR": 0.00069712678, "MEAN_MOTION_DOT": 0.00035195, "MEAN_MOTION_DDOT": 0}, "tle": {"line1": "1 42987U 17068A   25339.30660383  .00035195  00000+0  69713-3 0  9994", "line2": "2 42987  97.4138 116.6174 0000960 111.0650 249.0703 15.46987320453168"}}, "geometry": {"type": "Point", "coordinates": [116.14206464115944, 10.167356887493836]}}, {"type": "Feature", "properties": {"norad_id": 42988, "name": "SKYSAT-C10", "group": "resource", "lat": 81.85444821963291, "lon": -3.3906810901146587, "alt_km": 458.68695304641733, "timestamp": "2025-12-06T03:35:01.454963+00:00", "meta": {"OBJECT_NAME": "SKYSAT-C10", "OBJECT_ID": "2017-068B", "EPOCH": "2025-12-04T07:16:54.383808", "MEAN_MOTION": 15.31835554, "ECCENTRICITY": 0.0006971, "INCLINATION": 97.4228, "RA_OF_ASC_NODE": 109.1352, "ARG_OF_PERICENTER": 134.0692, "MEAN_ANOMALY": 226.1124, "EPHEMERIS_TYPE": 0, "CLASSIFICATION_TYPE": "U", "NORAD_CAT_ID": 42988, "ELEMENT_SET_NO": 999, "REV_AT_EPOCH": 45250, "BSTAR": 0.00074085, "MEAN_MOTION_DOT": 0.00022753, "MEAN_MOTION_DDOT": 0}, "tle": {"line1": "1 42988U 17068B   25338.30340722  .00022753  00000+0  74085-3 0  9990", "line2": "2 42988  97.4228 109.1352 0006971 134.0692 226.1124 15.31835554452508"}}, "geometry": {"type": "Point", "coordinates": [-3.3906810901146587, 81.85444821963291]}}, {"type": "Feature", "properties": {"norad_id": 42989, "name": "SKYSAT-C9", "group": "resource", "lat": -26.544158388143675, "lon": -73.3791288402367, "alt_km": 465.35212335073265, "timestamp": "2025-12-06T03:35:01.454973+00:00", "meta": {"OBJECT_NAME": "SKYSAT-C9", "OBJECT_ID": "2017-068C", "EPOCH": "2025-12-05T07:55:21.826272", "MEAN_MOTION": 15.35760455, "ECCENTRICITY": 0.00106439, "INCLINATION": 97.4189, "RA_OF_ASC_NODE": 109.5279, "ARG_OF_PERICENTER": 111.7401, "MEAN_ANOMALY": 248.4976, "EPHEMERIS_TYPE": 0, "CLASSIFICATION_TYPE": "U", "NORAD_CAT_ID": 42989, "ELEMENT_SET_NO": 999, "REV_AT_EPOCH": 45294, "BSTAR": 0.00064898703, "MEAN_MOTION_DOT": 0.00022574, "MEAN_MOTION_DDOT": 0}, "tle": {"line1": "1 42989U 17068C   25339.33011373  .00022574  00000+0  64899-3 0  9995", "line2": "2 42989  97.4189 109.5279 0010643 111.7401 248.4976 15.35760455452949"}}, "geometry": {"type": "Point", "coordinates": [-73.3791288402367, -26.544158388143675]}}, {"type": "Feature", "properties": {"norad_id": 42990, "name": "SKYSAT-C8", "group": "resource", "lat": -69.77534353758907, "lon": -90.61763316815085, "alt_km": 475.7660931694181, "timestamp": "2025-12-06T03:35:01.454983+00:00", "meta": {"OBJECT_NAME": "SKYSAT-C8", "OBJECT_ID": "2017-068D", "EPOCH": "2025-12-05T07:41:19.330368", "MEAN_MOTION": 15.326728, "ECCENTRICITY": 0.00020379, "INCLINATION": 97.428, "RA_OF_ASC_NODE": 109.2902, "ARG_OF_PERICENTER": 15.2362, "MEAN_ANOMALY": 344.8941, "EPHEMERIS_TYPE": 0, "CLASSIFICATION_TYPE": "U", "NORAD_CAT_ID": 42990, "ELEMENT_SET_NO": 999, "REV_AT_EPOCH": 45257, "BSTAR": 0.00063389336, "MEAN_MOTION_DOT": 0.00019952, "MEAN_MOTION_DDOT": 0}, "tle": {"line1": "1 42990U 17068D   25339.32036262  .00019952  00000+0  63389-3 0  9999", "line2": "2 42990  97.4280 109.2902 0002037  15.2362 344.8941 15.32672800452570"}}, "geometry": {"type": "Point", "coordinates": [-90.61763316815085, -69.77534353758907]}}, {"type": "Feature", "properties": {"norad_id": 42991, "name": "SKYSAT-C7", "group": "resource", "lat": 58.49034815031714, "lon": -56.54258163424665, "alt_km": 459.9617638484542, "timestamp": "2025-12-06T03:35:01.454994+00:00", "meta": {"OBJECT_NAME": "SKYSAT-C7", "OBJECT_ID": "2017-068E", "EPOCH": "2025-12-05T03:32:49.838784", "MEAN_MOTION": 15.32073797, "ECCENTRICITY": 0.00078966, "INCLINATION": 97.4286, "RA_OF_ASC_NODE": 110.1642, "ARG_OF_PERICENTER": 80.9254, "MEAN_ANOMALY": 279.2881, "EPHEMERIS_TYPE": 0, "CLASSIFICATION_TYPE": "U", "NORAD_CAT_ID": 42991, "ELEMENT_SET_NO": 999, "REV_AT_EPOCH": 45261, "BSTAR": 0.00064678023, "MEAN_MOTION_DOT": 0.00019999, "MEAN_MOTION_DDOT": 0}, "tle": {"line1": "1 42991U 17068E   25339.14779906  .00019999  00000+0  64678-3 0  9992", "line2": "2 42991  97.4286 110.1642 0007896  80.9254 279.2881 15.32073797452615"}}, "geometry": {"type": "Point", "coordinates": [-56.54258163424665, 58.49034815031714]}}, {"type": "Feature", "properties": {"norad_id": 42992, "name": "SKYSAT-C6", "group": "resource", "lat": -75.28900942427309, "lon": -98.20240095274717, "alt_km": 482.5714579542646, "timestamp": "2025-12-06T03:35:01.455004+00:00", "meta": {"OBJECT_NAME": "SKYSAT-C6", "OBJECT_ID": "2017-068F", "EPOCH": "2025-12-05T07:38:38.100192", "MEAN_MOTION": 15.31255053, "ECCENTRICITY": 0.00051728, "INCLINATION": 97.4322, "RA_OF_ASC_NODE": 110.7801, "ARG_OF_PERICENTER": 103.4888, "MEAN_ANOMALY": 256.693, "EPHEMERIS_TYPE": 0, "CLASSIFICATION_TYPE": "U", "NORAD_CAT_ID": 42992, "ELEMENT_SET_NO": 999, "REV_AT_EPOCH": 45262, "BSTAR": 0.0006217754, "MEAN_MOTION_DOT": 0.00018725, "MEAN_MOTION_DDOT": 0}, "tle": {"line1": "1 42992U 17068F   25339.31849653  .00018725  00000+0  62178-3 0  9998", "line2": "2 42992  97.4322 110.7801 0005172 103.4888 256.6930 15.31255053452620"}}, "geometry": {"type": "Point", "coordinates": [-98.20240095274717, -75.28900942427309]}}, {"type": "Feature", "properties": {"norad_id": 43111, "name": "CARTOSAT-2F", "group": "resource", "lat": -67.17010846911691, "lon": 55.96077408178769, "alt_km": 515.9116004513189, "timestamp": "2025-12-06T03:35:01.455015+00:00", "meta": {"OBJECT_NAME": "CARTOSAT-2F", "OBJECT_ID": "2018-004A", "EPOCH": "2025-12-05T07:20:01.021632", "MEAN_MOTION": 15.19162723, "ECCENTRICITY": 4.843e-05, "INCLINATION": 97.4331, "RA_OF_ASC_NODE": 37.0637, "ARG_OF_PERICENTER": 132.2395, "MEAN_ANOMALY": 227.8881, "EPHEMERIS_TYPE": 0, "CLASSIFICATION_TYPE": "U", "NORAD_CAT_ID": 43111, "ELEMENT_SET_NO": 999, "REV_AT_EPOCH": 43789, "BSTAR": 0.00049080909, "MEAN_MOTION_DOT": 0.00010257, "MEAN_MOTION_DDOT": 0}, "tle": {"line1": "1 43111U 18004A   25339.30556738  .00010257  00000+0  49081-3 0  9991", "line2": "2 43111  97.4331  37.0637 0000484 132.2395 227.8881 15.19162723437890"}}, "geometry": {"type": "Point", "coordinates": [55.96077408178769, -67.17010846911691]}}, {"type": "Feature", "properties": {"norad_id": 43259, "name": "GAOFEN-1 02", "group": "resource", "lat": -9.202351496713236, "lon": 39.25525921661165, "alt_km": 644.9413628541461, "timestamp": "2025-12-06T03:35:01.455025+00:00", "meta": {"OBJECT_NAME": "GAOFEN-1 02", "OBJECT_ID": "2018-031A", "EPOCH": "2025-12-05T08:06:28.096416", "MEAN_MOTION": 14.76456391, "ECCENTRICITY": 0.00013391, "INCLINATION": 98.0818, "RA_OF_ASC_NODE": 37.1243, "ARG_OF_PERICENTER": 245.2818, "MEAN_ANOMALY": 114.8252, "EPHEMERIS_TYPE": 0, "CLASSIFICATION_TYPE": "U", "NORAD_CAT_ID": 43259, "ELEMENT_SET_NO": 999, "REV_AT_EPOCH": 41409, "BSTAR": 0.00030412338, "MEAN_MOTION_DOT": 2.064e-05, "MEAN_MOTION_DDOT": 0}, "tle": {"line1": "1 43259U 18031A   25339.33782519  .00002064  00000+0  30412-3 0  9990", "line2": "2 43259  98.0818  37.1243 0001339 245.2818 114.8252 14.76456391414092"}}, "geometry": {"type": "Point", "coordinates": [39.25525921661165, -9.202351496713236]}}, {"type": "Feature", "properties": {"norad_id": 43260, "name": "GAOFEN-1 03", "group": "resource", "lat": 71.31637439236468, "lon": -117.34230582995427, "alt_km": 634.5553139054464, "timestamp": "2025-12-06T03:35:01.455035+00:00", "meta": {"OBJECT_NAME": "GAOFEN-1 03", "OBJECT_ID": "2018-031B", "EPOCH": "2025-12-05T07:34:58.886976", "MEAN_MOTION": 14.76412741, "ECCENTRICITY": 0.00024578, "INCLINATION": 98.081, "RA_OF_ASC_NODE": 36.9802, "ARG_OF_PERICENTER": 352.5349, "MEAN_ANOMALY": 7.5823, "EPHEMERIS_TYPE": 0, "CLASSIFICATION_TYPE": "U", "NORAD_CAT_ID": 43260, "ELEMENT_SET_NO": 999, "REV_AT_EPOCH": 41408, "BSTAR": 0.00030556111, "MEAN_MOTION_DOT": 2.072e-05, "MEAN_MOTION_DDOT": 0}, "tle": {"line1": "1 43260U 18031B   25339.31595934  .00002072  00000+0  30556-3 0  9991", "line2": "2 43260  98.0810  36.9802 0002457 352.5349   7.5823 14.76412741414089"}}, "geometry": {"type": "Point", "coordinates": [-117.34230582995427, 71.31637439236468]}}]}